{
  "norad_id": 53072,
  "name": "STARLINK-4344",
  "history": [
    {
      "epoch": "2026-03-28T18:51:43.074144Z",
      "apogee_km": 550.3077982899486,
      "perigee_km": 548.704326026781,
      "latitude_deg": 6.753261824993964e-05,
      "longitude_deg": 160.88134617480873,
      "height_km": 552.5701462561506,
      "semi_major_axis_km": 6927.643062158364,
      "eccentricity": 0.00011573,
      "inclination_deg": 97.6027,
      "raan_deg": 270.0122,
      "arg_perigee_deg": 90.0528,
      "mean_anomaly_deg": 270.0832,
      "mean_motion_rev_day": 15.0565166
    },
    {
      "epoch": "2026-03-29T01:14:31.166304Z",
      "apogee_km": 550.3120732155576,
      "perigee_km": 548.7187131651226,
      "latitude_deg": 5.496177080894622e-05,
      "longitude_deg": 65.180845445408,
      "height_km": 552.5986164258748,
      "semi_major_axis_km": 6927.652393190339,
      "eccentricity": 0.000115,
      "inclination_deg": 97.6027,
      "raan_deg": 270.2741,
      "arg_perigee_deg": 91.4287,
      "mean_anomaly_deg": 268.7072,
      "mean_motion_rev_day": 15.05648618
    },
    {
      "epoch": "2026-03-30T01:10:01.199136Z",
      "apogee_km": 550.3498406084009,
      "perigee_km": 548.6872032831343,
      "latitude_deg": -7.555437913967669e-06,
      "longitude_deg": 66.30565227166767,
      "height_km": 552.6204527840193,
      "semi_major_axis_km": 6927.655521945768,
      "eccentricity": 0.00012,
      "inclination_deg": 97.6026,
      "raan_deg": 271.2566,
      "arg_perigee_deg": 92.6639,
      "mean_anomaly_deg": 267.4725,
      "mean_motion_rev_day": 15.05647598
    },
    {
      "epoch": "2026-03-30T05:57:07.415136Z",
      "apogee_km": 550.3627589671769,
      "perigee_km": 548.6891741477166,
      "latitude_deg": -4.528641026519496e-06,
      "longitude_deg": -5.470263331019142,
      "height_km": 552.617662922056,
      "semi_major_axis_km": 6927.662966557446,
      "eccentricity": 0.00012079,
      "inclination_deg": 97.6027,
      "raan_deg": 271.4531,
      "arg_perigee_deg": 91.9467,
      "mean_anomaly_deg": 268.1898,
      "mean_motion_rev_day": 15.05645171
    },
    {
      "epoch": "2026-03-30T12:19:55.395840Z",
      "apogee_km": 550.3671168281162,
      "perigee_km": 548.6791231632769,
      "latitude_deg": -2.421224140620535e-05,
      "longitude_deg": -101.17009708024771,
      "height_km": 552.6138155660617,
      "semi_major_axis_km": 6927.660119995696,
      "eccentricity": 0.00012183,
      "inclination_deg": 97.603,
      "raan_deg": 271.7152,
      "arg_perigee_deg": 91.8636,
      "mean_anomaly_deg": 268.273,
      "mean_motion_rev_day": 15.05646099
    },
    {
      "epoch": "2026-03-30T21:54:07.238592Z",
      "apogee_km": 550.3917542158852,
      "perigee_km": 548.6378113375213,
      "latitude_deg": 3.411119657860731e-05,
      "longitude_deg": 115.28042669755341,
      "height_km": 552.6130865121884,
      "semi_major_axis_km": 6927.651782776703,
      "eccentricity": 0.00012659,
      "inclination_deg": 97.603,
      "raan_deg": 272.1081,
      "arg_perigee_deg": 92.2962,
      "mean_anomaly_deg": 267.841,
      "mean_motion_rev_day": 15.05648817
    },
    {
      "epoch": "2026-03-31T18:38:13.648704Z",
      "apogee_km": 550.4641511852715,
      "perigee_km": 548.5909106961053,
      "latitude_deg": -6.0311846253415656e-05,
      "longitude_deg": 164.25367075328305,
      "height_km": 552.6092340366373,
      "semi_major_axis_km": 6927.664530940689,
      "eccentricity": 0.0001352,
      "inclination_deg": 97.6026,
      "raan_deg": 272.9596,
      "arg_perigee_deg": 91.1418,
      "mean_anomaly_deg": 268.9963,
      "mean_motion_rev_day": 15.05644661
    }
  ]
}